CCSDS_OMM_VERS = 2.0
CREATION_DATE  = 
ORIGINATOR     = 

OBJECT_NAME    = STARLINK-36503
OBJECT_ID      = 2026-005H
CENTER_NAME    = EARTH
REF_FRAME      = TEME
TIME_SYSTEM    = UTC
MEAN_ELEMENT_THEORY = SGP/SGP4

EPOCH          = 2026-02-08T22:12:37.354176
MEAN_MOTION    = 15.50603529
ECCENTRICITY   = .00021102
INCLINATION    = 43.0006
RA_OF_ASC_NODE = 42.4828
ARG_OF_PERICENTER = 212.3509
MEAN_ANOMALY   = 147.7222

EPHEMERIS_TYPE = 0
CLASSIFICATION_TYPE = U
NORAD_CAT_ID   = 67411
ELEMENT_SET_NO = 999
REV_AT_EPOCH   = 427
BSTAR          = .1544405E-2
MEAN_MOTION_DOT = .91408E-3
MEAN_MOTION_DDOT = 0

CCSDS_OMM_VERS = 2.0
CREATION_DATE  = 
ORIGINATOR     = 

OBJECT_NAME    = STARLINK-36446
OBJECT_ID      = 2026-005J
CENTER_NAME    = EARTH
REF_FRAME      = TEME
TIME_SYSTEM    = UTC
MEAN_ELEMENT_THEORY = SGP/SGP4

EPOCH          = 2026-02-08T22:00:03.000096
MEAN_MOTION    = 15.40658617
ECCENTRICITY   = .00009234
INCLINATION    = 43.0006
RA_OF_ASC_NODE = 42.7766
ARG_OF_PERICENTER = 263.8256
MEAN_ANOMALY   = 307.2168

EPHEMERIS_TYPE = 0
CLASSIFICATION_TYPE = U
NORAD_CAT_ID   = 67412
ELEMENT_SET_NO = 999
REV_AT_EPOCH   = 556
BSTAR          = .14087107E-2
MEAN_MOTION_DOT = .58916E-3
MEAN_MOTION_DDOT = 0

CCSDS_OMM_VERS = 2.0
CREATION_DATE  = 
ORIGINATOR     = 

OBJECT_NAME    = STARLINK-36442
OBJECT_ID      = 2026-005K
CENTER_NAME    = EARTH
REF_FRAME      = TEME
TIME_SYSTEM    = UTC
MEAN_ELEMENT_THEORY = SGP/SGP4

EPOCH          = 2026-02-07T12:13:58.160352
MEAN_MOTION    = 15.47024107
ECCENTRICITY   = .0007343
INCLINATION    = 42.9995
RA_OF_ASC_NODE = 50.7799
ARG_OF_PERICENTER = 328.0818
MEAN_ANOMALY   = 31.9596

EPHEMERIS_TYPE = 0
CLASSIFICATION_TYPE = U
NORAD_CAT_ID   = 67413
ELEMENT_SET_NO = 999
REV_AT_EPOCH   = 405
BSTAR          = .24267E-2
MEAN_MOTION_DOT = .127502E-2
MEAN_MOTION_DDOT = 0

CCSDS_OMM_VERS = 2.0
CREATION_DATE  = 
ORIGINATOR     = 

OBJECT_NAME    = STARLINK-36506
OBJECT_ID      = 2026-005L
CENTER_NAME    = EARTH
REF_FRAME      = TEME
TIME_SYSTEM    = UTC
MEAN_ELEMENT_THEORY = SGP/SGP4

EPOCH          = 2026-02-08T20:38:23.063424
MEAN_MOTION    = 15.50675772
ECCENTRICITY   = .00016093
INCLINATION    = 43.0001
RA_OF_ASC_NODE = 42.8511
ARG_OF_PERICENTER = 224.7267
MEAN_ANOMALY   = 135.3464

EPHEMERIS_TYPE = 0
CLASSIFICATION_TYPE = U
NORAD_CAT_ID   = 67414
ELEMENT_SET_NO = 999
REV_AT_EPOCH   = 426
BSTAR          = .21133353E-2
MEAN_MOTION_DOT = .126088E-2
MEAN_MOTION_DDOT = 0

CCSDS_OMM_VERS = 2.0
CREATION_DATE  = 
ORIGINATOR     = 

OBJECT_NAME    = STARLINK-36468
OBJECT_ID      = 2026-005M
CENTER_NAME    = EARTH
REF_FRAME      = TEME
TIME_SYSTEM    = UTC
MEAN_ELEMENT_THEORY = SGP/SGP4

EPOCH          = 2026-02-08T22:00:03.000096
MEAN_MOTION    = 15.44554765
ECCENTRICITY   = .00012402
INCLINATION    = 43.0000
RA_OF_ASC_NODE = 42.5513
ARG_OF_PERICENTER = 250.5097
MEAN_ANOMALY   = 54.0468

EPHEMERIS_TYPE = 0
CLASSIFICATION_TYPE = U
NORAD_CAT_ID   = 67415
ELEMENT_SET_NO = 999
REV_AT_EPOCH   = 551
BSTAR          = -.46860195E-1
MEAN_MOTION_DOT = -.19883E-1
MEAN_MOTION_DDOT = 0

CCSDS_OMM_VERS = 2.0
CREATION_DATE  = 
ORIGINATOR     = 

OBJECT_NAME    = STARLINK-36487
OBJECT_ID      = 2026-005N
CENTER_NAME    = EARTH
REF_FRAME      = TEME
TIME_SYSTEM    = UTC
MEAN_ELEMENT_THEORY = SGP/SGP4

EPOCH          = 2026-02-08T22:00:03.000096
MEAN_MOTION    = 15.40656606
ECCENTRICITY   = .00014083
INCLINATION    = 43.0007
RA_OF_ASC_NODE = 42.8958
ARG_OF_PERICENTER = 250.5941
MEAN_ANOMALY   = 270.6910

EPHEMERIS_TYPE = 0
CLASSIFICATION_TYPE = U
NORAD_CAT_ID   = 67416
ELEMENT_SET_NO = 999
REV_AT_EPOCH   = 556
BSTAR          = .13643294E-2
MEAN_MOTION_DOT = .57032E-3
MEAN_MOTION_DDOT = 0

CCSDS_OMM_VERS = 2.0
CREATION_DATE  = 
ORIGINATOR     = 

OBJECT_NAME    = STARLINK-36374
OBJECT_ID      = 2026-005P
CENTER_NAME    = EARTH
REF_FRAME      = TEME
TIME_SYSTEM    = UTC
MEAN_ELEMENT_THEORY = SGP/SGP4

EPOCH          = 2026-02-08T22:09:40.563360
MEAN_MOTION    = 15.50462964
ECCENTRICITY   = .00036479
INCLINATION    = 43.0007
RA_OF_ASC_NODE = 42.4664
ARG_OF_PERICENTER = 314.5078
MEAN_ANOMALY   = 45.5484

EPHEMERIS_TYPE = 0
CLASSIFICATION_TYPE = U
NORAD_CAT_ID   = 67417
ELEMENT_SET_NO = 999
REV_AT_EPOCH   = 427
BSTAR          = .13887484E-2
MEAN_MOTION_DOT = .81659E-3
MEAN_MOTION_DDOT = 0

CCSDS_OMM_VERS = 2.0
CREATION_DATE  = 
ORIGINATOR     = 

OBJECT_NAME    = STARLINK-36455
OBJECT_ID      = 2026-005Q
CENTER_NAME    = EARTH
REF_FRAME      = TEME
TIME_SYSTEM    = UTC
MEAN_ELEMENT_THEORY = SGP/SGP4

EPOCH          = 2026-02-08T22:09:09.851616
MEAN_MOTION    = 15.50602776
ECCENTRICITY   = .00021056
INCLINATION    = 43.0010
RA_OF_ASC_NODE = 42.4635
ARG_OF_PERICENTER = 219.6579
MEAN_ANOMALY   = 140.4128

EPHEMERIS_TYPE = 0
CLASSIFICATION_TYPE = U
NORAD_CAT_ID   = 67418
ELEMENT_SET_NO = 999
REV_AT_EPOCH   = 427
BSTAR          = .14399918E-2
MEAN_MOTION_DOT = .85134E-3
MEAN_MOTION_DDOT = 0

CCSDS_OMM_VERS = 2.0
CREATION_DATE  = 
ORIGINATOR     = 

OBJECT_NAME    = STARLINK-36424
OBJECT_ID      = 2026-005R
CENTER_NAME    = EARTH
REF_FRAME      = TEME
TIME_SYSTEM    = UTC
MEAN_ELEMENT_THEORY = SGP/SGP4

EPOCH          = 2026-02-07T09:02:00.656736
MEAN_MOTION    = 15.51099463
ECCENTRICITY   = .00008585
INCLINATION    = 43.0002
RA_OF_ASC_NODE = 51.4980
ARG_OF_PERICENTER = 256.2283
MEAN_ANOMALY   = 103.8482

EPHEMERIS_TYPE = 0
CLASSIFICATION_TYPE = U
NORAD_CAT_ID   = 67419
ELEMENT_SET_NO = 999
REV_AT_EPOCH   = 403
BSTAR          = .27918423E-2
MEAN_MOTION_DOT = .170183E-2
MEAN_MOTION_DDOT = 0

CCSDS_OMM_VERS = 2.0
CREATION_DATE  = 
ORIGINATOR     = 

OBJECT_NAME    = STARLINK-35564
OBJECT_ID      = 2026-005S
CENTER_NAME    = EARTH
REF_FRAME      = TEME
TIME_SYSTEM    = UTC
MEAN_ELEMENT_THEORY = SGP/SGP4

EPOCH          = 2026-02-08T22:08:10.581216
MEAN_MOTION    = 15.50608968
ECCENTRICITY   = .00022215
INCLINATION    = 43.0005
RA_OF_ASC_NODE = 42.4576
ARG_OF_PERICENTER = 206.7361
MEAN_ANOMALY   = 153.3385

EPHEMERIS_TYPE = 0
CLASSIFICATION_TYPE = U
NORAD_CAT_ID   = 67420
ELEMENT_SET_NO = 999
REV_AT_EPOCH   = 427
BSTAR          = .14564771E-2
MEAN_MOTION_DOT = .86143E-3
MEAN_MOTION_DDOT = 0

CCSDS_OMM_VERS = 2.0
CREATION_DATE  = 
ORIGINATOR     = 

OBJECT_NAME    = STARLINK-36431
OBJECT_ID      = 2026-005T
CENTER_NAME    = EARTH
REF_FRAME      = TEME
TIME_SYSTEM    = UTC
MEAN_ELEMENT_THEORY = SGP/SGP4

EPOCH          = 2026-02-08T21:21:28.221408
MEAN_MOTION    = 15.40739417
ECCENTRICITY   = .00017909
INCLINATION    = 42.9999
RA_OF_ASC_NODE = 43.0813
ARG_OF_PERICENTER = 197.2957
MEAN_ANOMALY   = 162.7839

EPHEMERIS_TYPE = 0
CLASSIFICATION_TYPE = U
NORAD_CAT_ID   = 67421
ELEMENT_SET_NO = 999
REV_AT_EPOCH   = 426
BSTAR          = .17241342E-2
MEAN_MOTION_DOT = .72501E-3
MEAN_MOTION_DDOT = 0

CCSDS_OMM_VERS = 2.0
CREATION_DATE  = 
ORIGINATOR     = 

OBJECT_NAME    = STARLINK-36418
OBJECT_ID      = 2026-005U
CENTER_NAME    = EARTH
REF_FRAME      = TEME
TIME_SYSTEM    = UTC
MEAN_ELEMENT_THEORY = SGP/SGP4

EPOCH          = 2026-02-08T22:00:03.000096
MEAN_MOTION    = 15.40658363
ECCENTRICITY   = .00007004
INCLINATION    = 43.0008
RA_OF_ASC_NODE = 42.6237
ARG_OF_PERICENTER = 256.4105
MEAN_ANOMALY   = 16.8339

EPHEMERIS_TYPE = 0
CLASSIFICATION_TYPE = U
NORAD_CAT_ID   = 67422
ELEMENT_SET_NO = 999
REV_AT_EPOCH   = 551
BSTAR          = .15286609E-2
MEAN_MOTION_DOT = .64E-3
MEAN_MOTION_DDOT = 0

