STARLINK-36503          
1 67411U 26005H   26039.92543234  .00091408  00000+0  15444-2 0  9995
2 67411  43.0006  42.4828 0002110 212.3509 147.7222 15.50603529  4272
STARLINK-36446          
1 67412U 26005J   26039.91670139  .00058916  00000+0  14087-2 0  9999
2 67412  43.0006  42.7766 0000923 263.8256 307.2168 15.40658617  5569
STARLINK-36442          
1 67413U 26005K   26038.50970093  .00127502  00000+0  24267-2 0  9995
2 67413  42.9995  50.7799 0007343 328.0818  31.9596 15.47024107  4058
STARLINK-36506          
1 67414U 26005L   26039.85998916  .00126088  00000+0  21133-2 0  9996
2 67414  43.0001  42.8511 0001609 224.7267 135.3464 15.50675772  4262
STARLINK-36468          
1 67415U 26005M   26039.91670139 -.01988300  00000+0 -46860-1 0  9997
2 67415  43.0000  42.5513 0001240 250.5097  54.0468 15.44554765  5511
STARLINK-36487          
1 67416U 26005N   26039.91670139  .00057032  00000+0  13643-2 0  9998
2 67416  43.0007  42.8958 0001408 250.5941 270.6910 15.40656606  5565
STARLINK-36374          
1 67417U 26005P   26039.92338615  .00081659  00000+0  13887-2 0  9992
2 67417  43.0007  42.4664 0003647 314.5078  45.5484 15.50462964  4270
STARLINK-36455          
1 67418U 26005Q   26039.92303069  .00085134  00000+0  14400-2 0  9992
2 67418  43.0010  42.4635 0002105 219.6579 140.4128 15.50602776  4279
STARLINK-36424          
1 67419U 26005R   26038.37639649  .00170183  00000+0  27918-2 0  9994
2 67419  43.0002  51.4980 0000858 256.2283 103.8482 15.51099463  4030
STARLINK-35564          
1 67420U 26005S   26039.92234469  .00086143  00000+0  14565-2 0  9995
2 67420  43.0005  42.4576 0002221 206.7361 153.3385 15.50608968  4272
STARLINK-36431          
1 67421U 26005T   26039.88990997  .00072501  00000+0  17241-2 0  9993
2 67421  42.9999  43.0813 0001790 197.2957 162.7839 15.40739417  4269
STARLINK-36418          
1 67422U 26005U   26039.91670139  .00064000  00000+0  15287-2 0  9994
2 67422  43.0008  42.6237 0000700 256.4105  16.8339 15.40658363  5514
